{"type":"FeatureCollection","features":[{"type":"Feature","properties":{"name":"Iligan City","source":"iligan-barangays.geojson (dissolved)"},"geometry":{"type":"Polygon","coordinates":[[[124.16534706106096,8.181799628687502],[124.16562265967376,8.180336902357995],[124.16539805101394,8.179797001121393],[124.16669378605016,8.177043454645695],[124.16872218932346,8.175387310965428],[124.16900571990084,8.173924015494201],[124.16862604001791,8.172712999143682],[124.1687930317967,8.172085022537013],[124.1712202591,8.170492596765227],[124.1711860457824,8.168232018774841],[124.1718280121872,8.167616035412916],[124.1731329892182,8.167764035171295],[124.17442505689573,8.168421217284825],[124.17518754666261,8.168159469284126],[124.17532174402335,8.166582955045865],[124.17442803396689,8.164980991663228],[124.17443703527528,8.164483022034073],[124.17512801149799,8.164142041521691],[124.1769957606305,8.164008471454231],[124.17810101314448,8.162946045662848],[124.17919008451267,8.163182977367095],[124.18206469796316,8.163122393110017],[124.18313102247166,8.161600026110857],[124.18397431487128,8.161200915264912],[124.18457802675795,8.160026023963328],[124.18611099450005,8.159054050126102],[124.18696328565507,8.159896881583368],[124.18895200118753,8.159390061619522],[124.19034344287918,8.159688702171929],[124.19048323930191,8.159100131515325],[124.1899560550635,8.158286997561017],[124.19051502676858,8.15722802459491],[124.19125900740512,8.156771036493591],[124.19176698112727,8.156852032680758],[124.19275126503167,8.15802524631931],[124.19517974169175,8.157834451493539],[124.19662835127245,8.156378479398326],[124.197129053855,8.15468403032053],[124.1976858514969,8.154091445822521],[124.19720403855216,8.153607983458382],[124.19716704511913,8.152471029179475],[124.1984472991982,8.151962354298288],[124.19883900586787,8.150752100094197],[124.1997410420877,8.15272267483055],[124.20106598540978,8.153044032594574],[124.20250495564052,8.154008040555775],[124.20305896565992,8.154975008764945],[124.20304700576682,8.156118450457479],[124.20158763538234,8.15877184500564],[124.20121895769925,8.160496969688507],[124.20002684359874,8.161181684220178],[124.19968613554569,8.161792821701546],[124.19969738909792,8.163726260179207],[124.20027496525552,8.165597001230278],[124.1993071737638,8.169792246793458],[124.1991019605386,8.173609963877132],[124.19632410303511,8.173972258205044],[124.195568974163,8.17450754892915],[124.19536733898495,8.175099999911627],[124.19527567731448,8.176120437792012],[124.19747095359355,8.178389008707168],[124.19673086353367,8.180209180046267],[124.19707902800151,8.179492037085737],[124.20131151755314,8.178844073846156],[124.20700963113873,8.179189977592474],[124.20743573191685,8.179359023672674],[124.21459500199623,8.173308048301886],[124.21753585069165,8.175400920983677],[124.21490701464012,8.173389572758209],[124.21499005567826,8.170968021623716],[124.21622989076896,8.16954884137072],[124.21509805393168,8.165818007249307],[124.21702522304749,8.162785822372326],[124.21676017380614,8.159947530865681],[124.2171290315733,8.158952045918518],[124.22590551254582,8.15915992199344],[124.22606203868973,8.148919048331226],[124.2361685107605,8.151111893842783],[124.24399095733244,8.154720021651324],[124.24380396339623,8.155697981600834],[124.24340097259089,8.15612396152042],[124.2428939982121,8.15634196135246],[124.2418016385833,8.155988263056965],[124.23773965041916,8.159449593552988],[124.23633420848921,8.162836497195405],[124.23595690645057,8.163366623119979],[124.24301538591682,8.164815045618372],[124.259409956151,8.166753030552096],[124.25651926461093,8.179253721892287],[124.2652958572594,8.182409317257349],[124.27136859930312,8.175376464486604],[124.2750990203879,8.169630032770861],[124.28658895186241,8.168441842560487],[124.29832999257968,8.16233605431861],[124.31231192350512,8.17538298391753],[124.31013959414285,8.176143619679936],[124.30990207658712,8.176712068885958],[124.31038896145816,8.177503003891793],[124.31023597773833,8.177923988120984],[124.30986055437751,8.178419232129528],[124.30819167119996,8.179292920597343],[124.30909694807403,8.180486006803884],[124.30821641463514,8.182656269349215],[124.30937393087864,8.183366998522423],[124.3088895810796,8.183636835680469],[124.3085532766674,8.184695344951146],[124.30984984485518,8.185122131640448],[124.30968305019505,8.184363032376158],[124.31009198208453,8.184285043489036],[124.31131093864387,8.18602597252264],[124.31083413273204,8.186086570230483],[124.31119996095532,8.18696699779021],[124.31088696715767,8.187525972610672],[124.30872785342179,8.189242938635052],[124.30809831878823,8.191095061856448],[124.30796272300752,8.19237906801224],[124.30877795800987,8.19278604024483],[124.30979595640885,8.194964994581275],[124.308079096834,8.197054055734489],[124.30731174758185,8.199010983719417],[124.30860095631769,8.201913001304536],[124.30838395808672,8.202493966671302],[124.30753356935145,8.203036706702244],[124.30767204470533,8.20397991419789],[124.30844706415493,8.20475391396192],[124.31014691701424,8.205635405801255],[124.31004694849861,8.206123969419759],[124.30928505513242,8.206749086138585],[124.30957395531064,8.208096991857133],[124.30885597229754,8.209196974128936],[124.3073825013775,8.21026474875857],[124.30740678945247,8.210994467361349],[124.30563196734778,8.214933965296089],[124.30379491285076,8.215594754713837],[124.30380196147831,8.216311985669762],[124.30313897439598,8.217040955999256],[124.30145207228543,8.217393126062909],[124.30111196751287,8.218621951413631],[124.30017712090493,8.218496557046207],[124.29941062975365,8.21897085217694],[124.29941276706903,8.21959528840756],[124.30088295947986,8.22015502438294],[124.3007409550091,8.221410966677741],[124.29982601650207,8.22179094788244],[124.29871250428745,8.220057313075683],[124.29826492050259,8.220418042743885],[124.297615949647,8.222857965860554],[124.29636370685377,8.22375861473884],[124.29749495033376,8.224975016668978],[124.29735596243023,8.226460970358946],[124.29677699489923,8.226648935955698],[124.29507603246049,8.226381445650363],[124.29476261154889,8.227040648779264],[124.29518795269065,8.228556968964766],[124.29380412215961,8.228736309847156],[124.29349496429866,8.229743976765274],[124.29292599030437,8.230218948706444],[124.29191703917935,8.229875965598014],[124.29169840567425,8.22888078913259],[124.2910768394505,8.229120990217833],[124.28693126907515,8.232658266970946],[124.28708254122124,8.234814038680847],[124.32865495773135,8.226077045681283],[124.32853835813982,8.227125093370274],[124.32881105053399,8.225207018493656],[124.32952473968024,8.2241084006895],[124.33052818601514,8.223955126545318],[124.33091434417787,8.223494789242539],[124.33074704630651,8.220895021885852],[124.33249300057821,8.21967205215369],[124.33406215123767,8.220716408519676],[124.33580902293309,8.218569032117923],[124.33979500249684,8.217187036978512],[124.3417239830436,8.21758103979144],[124.3438562673441,8.219007712554694],[124.34569386264889,8.218305539519028],[124.34455104299128,8.21562700657918],[124.34551902362604,8.214510028897973],[124.3469122854027,8.213757993389711],[124.34839444473603,8.210762479054562],[124.34623603292154,8.20930797327892],[124.34571805677564,8.208092036578307],[124.34799402995297,8.208051865110198],[124.34860277095233,8.207435031312176],[124.34844379310549,8.204684057202751],[124.3477660491133,8.203418996067356],[124.3483788125348,8.20162232523823],[124.34652735171971,8.198893518188818],[124.34567104367088,8.196287011043395],[124.34660482695396,8.195414882400337],[124.34731102724456,8.193709039392614],[124.34839997903453,8.193689035693417],[124.3490296157474,8.194832096986321],[124.34956583648355,8.194862707192444],[124.35009742392809,8.19447963843528],[124.35039403889206,8.192950020107414],[124.35090702118922,8.192430037888853],[124.35233999276899,8.192122057750677],[124.35344753508362,8.192662852857705],[124.35419725878207,8.192418735027665],[124.354438031434,8.191247023666168],[124.35538360716521,8.19077219724914],[124.35720558917788,8.190968979882072],[124.3566870368135,8.189100999945255],[124.35710703055916,8.187578017698105],[124.35972550144727,8.185021230498046],[124.35975904072956,8.183669028394283],[124.36110649470439,8.183155470245612],[124.36179236837503,8.181655550562809],[124.36374598808618,8.179271122992402],[124.36440245993508,8.174931623553165],[124.36296205844866,8.173351968824782],[124.36250810665254,8.171615408059377],[124.36353872299328,8.169728882465165],[124.36286603112578,8.168478992449687],[124.36288303469789,8.166796009701844],[124.36324802221719,8.166194034281778],[124.36445525973079,8.166061156812432],[124.36462666177681,8.165798086053028],[124.36470604573027,8.163175015817675],[124.3654767236079,8.162156365295443],[124.36711420291317,8.16229580726715],[124.36770210785583,8.162041222294945],[124.3693589533521,8.159684489444293],[124.36962743942146,8.158435142759904],[124.3688750609008,8.156649049165628],[124.37657099417432,8.158134780288686],[124.39575579871573,8.153384057946846],[124.404669021367,8.14158802674185],[124.41216547143424,8.138363227371952],[124.413932010168,8.13732302508632],[124.41549484042658,8.136965618708263],[124.43277775230972,8.129124112382906],[124.43501461848801,8.128415120914156],[124.45554597635582,8.132937040655133],[124.47266978957926,8.151312774209476],[124.4812259536429,8.163463660636728],[124.48117403470924,8.162647009642807],[124.48242071626782,8.160933389983633],[124.48424019022058,8.159902088895999],[124.48421003689425,8.158275061104575],[124.4853226727356,8.158891937408702],[124.48597065105406,8.157508523032101],[124.48535982849741,8.156392148862263],[124.48409004520647,8.155476983179895],[124.48426403331604,8.154716027411709],[124.48599299900255,8.153980053266766],[124.48733949669071,8.154612142807693],[124.48814836161492,8.154403649776496],[124.488511747228,8.153195986219457],[124.48831005728717,8.15208700894131],[124.48890102171026,8.150994037127507],[124.49233361134992,8.151093783107656],[124.49345302478503,8.149161038732151],[124.49532295134203,8.149014892586827],[124.49672850106802,8.147857419619386],[124.49797889834346,8.146408938813018],[124.49892902822513,8.144090041634747],[124.55245897996815,8.144276045228663],[124.55308011502696,8.144937838693128],[124.55471179611315,8.145634486149813],[124.55825197874293,8.146059032754067],[124.55931197258117,8.147771011106789],[124.55990550778115,8.150304862511968],[124.56096303327472,8.150713794196797],[124.56277799084313,8.150616039203102],[124.56372796733453,8.151140026385322],[124.56448296087203,8.153497997767499],[124.56386956935803,8.15484917500189],[124.56399970305418,8.155580878931781],[124.56478255029809,8.155749884935318],[124.56624500317223,8.154876042394804],[124.56709996107257,8.155229022643876],[124.56697196065048,8.156347973016466],[124.5645960715854,8.157546691421189],[124.56424183625076,8.158261690851765],[124.56705493526866,8.160146001030595],[124.56610598429265,8.160823951200287],[124.53569623236636,8.16057086553793],[124.52011247955487,8.172481303127554],[124.51507306941294,8.194447697422536],[124.51008602170879,8.22618186187145],[124.50703380203281,8.239916430831784],[124.47745719375943,8.304271578474712],[124.46070905686794,8.326872873726044],[124.4608714584824,8.326099155964139],[124.46038385706947,8.324921092905278],[124.45799244449108,8.322499554833772],[124.45735766724758,8.322800400404176],[124.45737396149863,8.324391985531292],[124.4569273439377,8.324879624512699],[124.45631700360443,8.32512395775057],[124.4555850245932,8.324676976857482],[124.45517805496898,8.323945001245145],[124.45603139917144,8.322562685554686],[124.45603174451996,8.32162706124439],[124.4555033014847,8.3206109790911],[124.45473177190263,8.32020359636857],[124.45290102447355,8.32036609911748],[124.45160293950588,8.320893579346944],[124.45155756852142,8.32252108327714],[124.45050099889346,8.322724974867478],[124.44895658543642,8.322562061769446],[124.44745103755263,8.321992976406912],[124.44757303531115,8.320368049144085],[124.44818316417037,8.320519500360204],[124.4482405233159,8.318737057673408],[124.42582741361849,8.318378006635314],[124.40285482322273,8.315251143597958],[124.37971643290878,8.31807394718658],[124.36979502243291,8.320253948406561],[124.36636894061161,8.314603620636465],[124.35904815423117,8.316710450234918],[124.34645244785315,8.323415135718957],[124.32793201031983,8.32796696231401],[124.31781602008805,8.323533970589052],[124.30914877279679,8.315188744113273],[124.30343312152313,8.311833892409313],[124.29038119035287,8.321907151962508],[124.28643497505077,8.3300009584837],[124.2605581400802,8.32905304065965],[124.24818327049897,8.33170972724471],[124.24745301253236,8.332101943970118],[124.24680604171371,8.33123798519973],[124.24676849997434,8.330536114953857],[124.24570321570368,8.330170050584993],[124.24686490794411,8.330314834824406],[124.24593403580387,8.327925996309101],[124.2464837899099,8.32458627617818],[124.2463260392166,8.32333200601034],[124.24830079210427,8.319093446200071],[124.24885231164272,8.318804446355998],[124.25069638477014,8.315214197794756],[124.25104403504868,8.313255032605733],[124.25131489575975,8.313188052622351],[124.25184303253813,8.311752048286756],[124.25241518712373,8.311772771257573],[124.25238970418258,8.311490234497521],[124.25113323397561,8.311270019598169],[124.25193973764125,8.311263297962308],[124.25241502970344,8.309805047848066],[124.25276980984819,8.309853902120185],[124.25244357957092,8.309070796686628],[124.2519611707863,8.30885504483044],[124.25263716364898,8.308915542792823],[124.25293504301948,8.307534024350124],[124.25349939612775,8.307022211824098],[124.2533031999775,8.306850139734728],[124.25356511840137,8.306997508874927],[124.25404831455684,8.30644556534227],[124.25445803909504,8.3041840397034],[124.25478433382187,8.304129271803454],[124.25457903204571,8.304106959120965],[124.25406403804274,8.302506998639887],[124.25458288855829,8.300375991104058],[124.25436503815347,8.297529007637532],[124.2562887883443,8.293829407023324],[124.25651703135291,8.293948474966218],[124.25722598262547,8.29125178427423],[124.25718004133668,8.288034063890919],[124.25775701697255,8.288303724850474],[124.25805101881976,8.287837036266081],[124.25880981286512,8.287887318110275],[124.25928993972286,8.287347112621683],[124.2591985506267,8.28772936744318],[124.26116886499179,8.287529900590165],[124.2618532286749,8.286890228366197],[124.26126806796952,8.286722981937743],[124.26194168015047,8.286052318418632],[124.26206093147277,8.286134003131727],[124.2618894279307,8.286283725697983],[124.26206983372373,8.286534037971427],[124.26260732982315,8.286279984001578],[124.26450061517983,8.282808945644234],[124.26431506496318,8.281656589429762],[124.26346395631428,8.281837580947853],[124.2634370401248,8.281579024524362],[124.2642069525144,8.281289402576228],[124.26411337124023,8.280859156825178],[124.2628430843607,8.28111495005894],[124.26295241575536,8.280985943646282],[124.26410149389176,8.280827445282318],[124.26414806259851,8.279486017243618],[124.26463096388854,8.278623624463789],[124.26420501409797,8.279069932995528],[124.26313890046849,8.275953051629312],[124.26104793849632,8.273169594382514],[124.26091800210762,8.273276944499893],[124.26003481493352,8.272343505760986],[124.25928818335429,8.272982816743655],[124.2601056616487,8.272025742031964],[124.25860618228971,8.270504328128865],[124.25825782430658,8.270378813615899],[124.25781919478942,8.270940733377333],[124.25835457504544,8.270154297848277],[124.25735824527905,8.269000427079272],[124.25543984657874,8.267544540875905],[124.25492598048953,8.26734057642962],[124.25425101566711,8.267557956152087],[124.25379814819036,8.266868741954369],[124.25305177743128,8.266502613691342],[124.25245804501284,8.265471998277134],[124.25266241293383,8.265037702891165],[124.2523295857247,8.26476366480474],[124.25186303731991,8.264693443569763],[124.25083299627495,8.265834946252376],[124.24948723412484,8.264702107685077],[124.24905701715147,8.264819950456303],[124.24860602868426,8.264213988378756],[124.24849604094007,8.263455013786919],[124.24890306853504,8.263052947154533],[124.2479420571702,8.262020006612504],[124.24819432192403,8.26184023926873],[124.24767003882626,8.26165496049543],[124.24657360117055,8.25884118731653],[124.24630601503777,8.258949948297433],[124.24526840482227,8.257429900148605],[124.24481502831937,8.2572449706498],[124.24455804637789,8.256699010382068],[124.244905235289,8.256413713340939],[124.24466607272988,8.256254003931604],[124.24533469268543,8.255919626989861],[124.24453004896421,8.255402975178779],[124.24455703202656,8.254894061545611],[124.24532551535181,8.255372338577606],[124.24655509837527,8.25363617578047],[124.24569705521414,8.253147985327464],[124.24589956661386,8.252786082000393],[124.24503501293488,8.252758967611808],[124.24344580140834,8.251372538068416],[124.24285104903554,8.249988995467362],[124.24311343398378,8.24880089236418],[124.24204409940839,8.244636427753592],[124.24075903021347,8.24282298873176],[124.2405422537298,8.24087436873487],[124.23858202670343,8.238522984689086],[124.23813016853866,8.237337442230814],[124.24017270788522,8.235722014130879],[124.23787101117411,8.23733694112483],[124.23706487348097,8.236117122624023],[124.2349393026223,8.234677749291414],[124.23363702179012,8.235123946395136],[124.23219105669988,8.232313019365836],[124.23270315133831,8.231964563055314],[124.2326606161884,8.231274163801647],[124.23172916435165,8.231397948354937],[124.2324038645903,8.231053868308049],[124.2322820530378,8.230791027922212],[124.23302941339959,8.230682021663698],[124.23293705852795,8.230207140305204],[124.23312706473943,8.230488876409616],[124.23335623767498,8.230344270760297],[124.2329100533873,8.22818303864095],[124.23503322411342,8.227951327996212],[124.23441101786362,8.227905962337974],[124.23255981251353,8.22595927501688],[124.23240566483045,8.226591472818507],[124.23332987993126,8.227441935123098],[124.23268802643388,8.227278964740908],[124.23228204611534,8.226616988747104],[124.23240984850554,8.224573018096645],[124.23199512139139,8.223255799466596],[124.23156406757487,8.222840012265092],[124.23211188670466,8.22260088731615],[124.23213373816455,8.220894060013237],[124.23113620712492,8.218939405747873],[124.2312982438759,8.218809884639237],[124.23113366962504,8.218881668749711],[124.22963886086524,8.21738322292155],[124.22833301453365,8.216961972445556],[124.2265836858935,8.215756686512806],[124.22192192132216,8.211104109612391],[124.21993886327742,8.210166458019732],[124.21966911496804,8.21090165648533],[124.2198986734748,8.210151920359417],[124.21858240493941,8.209502710115528],[124.21754488365207,8.210346979900315],[124.21696497264155,8.212252947683686],[124.2167540473065,8.212182975628032],[124.21730629097001,8.21032344328429],[124.21562876500144,8.210117816081983],[124.21490997216495,8.212410941799272],[124.21248413120637,8.2114334558537],[124.20915757002983,8.211038067711156],[124.2071749653098,8.210273239179095],[124.20426801312341,8.210522946971295],[124.20340876777107,8.2098608319136],[124.20279098513686,8.210533963712965],[124.20220001532674,8.210494966306376],[124.20149103239886,8.20980198482352],[124.20144005077883,8.209261030396808],[124.20168879089606,8.20915271908755],[124.2013554656885,8.20812987806341],[124.20115499783446,8.20836094342641],[124.20094631245252,8.208151908953392],[124.2007549722764,8.208796948514989],[124.20053343336788,8.208727136660363],[124.20088602848095,8.207719337666115],[124.19943391279715,8.20665503100253],[124.19892805412917,8.207135902199754],[124.19900904210509,8.206746037772522],[124.19938470566345,8.206621948841223],[124.19878116722744,8.206228079591321],[124.19958631093571,8.20648801309408],[124.19971603934123,8.20587004241648],[124.20040551052499,8.205789871698382],[124.20044337262479,8.205120257260456],[124.19998885775739,8.204340124972585],[124.19799592704601,8.202865148848316],[124.19699505000767,8.202599967291384],[124.19704944642189,8.202209617382719],[124.19653457013307,8.201770672064713],[124.1956190561952,8.201607969668625],[124.19574838318685,8.201296256912057],[124.195366902319,8.200815109025646],[124.19328746628453,8.199562280907708],[124.19235624143418,8.19863850067059],[124.1905696514136,8.197462600008539],[124.19006502626863,8.197435963442388],[124.18973904108546,8.196643999444463],[124.18990408127183,8.196193178674893],[124.18916958668191,8.19583112737164],[124.1881819784464,8.19821495117877],[124.18683700864288,8.197717072231294],[124.18586899417308,8.19837196021581],[124.18354842588637,8.197628560683036],[124.18307899373761,8.198228938568349],[124.18283706485212,8.198020998210309],[124.18499644347962,8.195943407593614],[124.18462542781896,8.19515271127614],[124.18320619452437,8.193989573461684],[124.17926881986101,8.191904434202003],[124.1777950032017,8.191473346665555],[124.17755698204101,8.19174995564074],[124.17653801445881,8.191633964961783],[124.17482875363179,8.190319523383893],[124.17269104367135,8.189501965589256],[124.17260436241881,8.18893383988254],[124.17163300511706,8.189034966766103],[124.16931097349317,8.188039099188591],[124.16836302262266,8.18793696520732],[124.16785282900692,8.187087161378589],[124.16646682545809,8.186180605043829],[124.1655770275978,8.184166992921858],[124.16534706106096,8.181799628687502]]]}}]}